satname,norad_id,inclination_deg,eccentricity,mean_motion_rev_per_day,perigee_km,apogee_km,l1,l2
STARLINK-1008,44714,53.1515,0.0002243,15.52015847,409.3183223421429,412.363857913374,1 44714U 19074B   26183.19600949  .00071938  00000+0  11715-2 0  9993,2 44714  53.1515 356.7710 0002243 240.6773 119.4014 15.52015847366543
STARLINK-1012,44718,53.1555,0.0002814,15.52484685,407.5641760175795,411.3842436064615,1 44718U 19074F   26183.83281355  .00090664  00000+0  14464-2 0  9995,2 44718  53.1555 353.9524 0002814 259.7531 100.3162 15.52484685366633
STARLINK-1017,44723,53.0479,0.0002871,15.33305023,463.99473907455103,467.92461938776614,1 44723U 19074L   26183.20291778  .00042344  00000+0  13013-2 0  9993,2 44723  53.0479 359.2534 0002871 104.7429 255.3890 15.33305023366480
STARLINK-1020,44725,53.1551,0.0003064,15.58164866,390.8936632859859,395.04299663218535,1 44725U 19074N   26183.83190442  .00099898  00000+0  12914-2 0  9995,2 44725  53.1551  17.0314 0003064 201.0218 159.0669 15.58164866366299
STARLINK-1036,44741,53.043,0.000109,15.75706695,341.8883877118069,343.3535129449774,1 44741U 19074AE  26183.70965628  .00077165  00000+0  49276-3 0  9990,2 44741  53.0430 343.5040 0001090   0.9149 359.1872 15.75706695366741
STARLINK-1039,44744,53.0598,0.0003171,15.30392612,472.46700942996904,476.8130406192395,1 44744U 19074AH  26183.86677202  .00051189  00000+0  17180-2 0  9994,2 44744  53.0598  42.0882 0003171 127.1510 232.9780 15.30392612365948
STARLINK-1042,44747,53.0412,7.79e-05,15.55353439,400.5973158361385,401.65352492123293,1 44747U 19074AL  26183.48770140  .00027909  00000+0  40918-3 0  9999,2 44747  53.0412 261.6426 0000779  91.7140 268.3959 15.55353439367905
STARLINK-1043,44748,53.0489,0.0002578,15.64594249,372.66513999766903,376.1467511404044,1 44748U 19074AM  26183.75536675  .00043747  00000+0  44750-3 0  9999,2 44748  53.0489 355.1444 0002578  21.4504 338.6617 15.64594249366594
STARLINK-1046,44751,53.0467,0.0004987,15.5842403,388.84124897261154,395.59400067541173,1 44751U 19074AQ  26183.83603637  .00109865  00000+0  14035-2 0  9991,2 44751  53.0467  17.6031 0004987 165.8172 194.2981 15.58424030366285
STARLINK-1047,44752,53.07,0.0002275,15.34986252,459.405435447361,462.51722518765564,1 44752U 19074AR  26183.69870324  .00009535  00000+0  28761-3 0  9990,2 44752  53.0700 327.7116 0002275 175.5253 184.5770 15.34986252366990
STARLINK-1048,44753,53.0453,0.0003649,15.69977232,356.50377572250636,361.4205106772133,1 44753U 19074AS  26183.69580793  .00057561  00000+0  47127-3 0  9998,2 44753  53.0453 326.2395 0003649 123.4022 236.7344 15.69977232366983
STARLINK-1063,44768,53.1541,0.0001874,15.52177274,409.0982115618408,411.6425441270567,1 44768U 19074BH  26183.85304972  .00169131  00000+0  26949-2 0  9990,2 44768  53.1541  34.6533 0001874 196.3922 163.7028 15.52177274366087
STARLINK-1067,44771,53.0429,0.0003255,15.8142737,324.2209994768682,328.5856552299747,1 44771U 19074BL  26183.20906698  .00127656  00000+0  62440-3 0  9999,2 44771  53.0429 358.5877 0003255 286.9233  73.1431 15.81427370366494
STARLINK-1068,44772,53.0406,0.0003284,15.79369406,330.0225199013412,334.42988645318746,1 44772U 19074BM  26183.75033188 -.00042719  00000+0 -22916-3 0  9997,2 44772  53.0406 329.8736 0003284 318.3243  41.7526 15.79369406366935
STARLINK-1114,44927,53.039,0.0001639,15.72216494,351.46049296507863,353.66681663972213,1 44927U 20001P   26183.84375806  .00075594  00000+0  56105-3 0  9999,2 44927  53.0390 128.0815 0001639 135.3856 224.7294 15.72216494358077
STARLINK-1123,44930,53.1407,0.0007729,15.6195949,376.7724958697818,387.2223116310988,1 44930U 20001S   26183.82494765  .00097702  00000+0  10921-2 0  9997,2 44930  53.1407 156.9832 0007729  38.3724 321.7839 15.61959490357689
STARLINK-1094,44941,53.1503,0.0007228,15.57472307,390.07984074812794,399.87105210067875,1 44941U 20001AD  26183.85199657  .00090892  00000+0  12068-2 0  9991,2 44941  53.1503 132.6647 0007228  62.1991 297.9753 15.57472307358039
STARLINK-1122,44949,53.1538,0.0006662,15.57776261,389.5827087475982,398.6060298240345,1 44949U 20001AM  26183.85955880  .00081611  00000+0  10734-2 0  9994,2 44949  53.1538 133.2043 0006662  54.6415 305.5219 15.57776261358028
STARLINK-1080,44961,53.045,0.0002618,15.70155888,356.6874528406033,360.21473036536736,1 44961U 20001AZ  26183.46218551  .00064436  00000+0  52273-3 0  9993,2 44961  53.0450  90.2704 0002618 108.8543 251.2757 15.70155888358576
STARLINK-1090,44968,53.1467,0.0005135,15.53578793,402.8032500391946,409.77085354038263,1 44968U 20001BG  26183.84591934  .00083037  00000+0  12749-2 0  9992,2 44968  53.1467 121.6951 0005135  68.1837 291.9719 15.53578793358187
STARLINK-1132,45044,53.1496,0.0002729,15.59129044,388.32943190447804,392.0235774153216,1 45044U 20006A   26183.86257684  .00056826  00000+0  71494-3 0  9995,2 45044  53.1496  61.6759 0002729 130.0533 230.0720 15.59129044354800
STARLINK-1131,45047,53.155,0.0004798,15.55627219,397.0776853122552,403.5823022394825,1 45047U 20006D   26183.74022586  .00077344  00000+0  11032-2 0  9995,2 45047  53.1550  95.7519 0004798  89.8095 270.3466 15.55627219354311
STARLINK-1134,45048,53.0225,0.00067,15.62084005,377.109112372832,386.16721108955153,1 45048U 20006E   26182.65475388  .00126660  00000+0  14025-2 0  9998,2 45048  53.0225  49.3266 0006700 158.5407 201.5888 15.62084005354840
STARLINK-1156,45054,53.1571,0.0004914,15.37188289,451.0708645824616,457.78590984501534,1 45054U 20006L   26183.78510967  .00044242  00000+0  12006-2 0  9995,2 45054  53.1571 104.3408 0004914  74.4707 285.6839 15.37188289354194
STARLINK-1166,45060,53.043,0.0001068,15.68028912,363.82156010296694,365.2617962686263,1 45060U 20006S   26184.41675926 -.00063311  00000+0 -55918-3 0  9990,2 45060  53.0430  73.5257 0001068 113.2250 181.7631 15.68028912  5879
STARLINK-1169,45061,53.1547,0.0006327,15.40774792,439.50511874382573,448.13762486750875,1 45061U 20006T   26183.76333728  .00059924  00000+0  14397-2 0  9997,2 45061  53.1547 102.4084 0006327  62.2239 297.9407 15.40774792354224
STARLINK-1171,45062,53.0379,0.0001048,15.78296026,334.56471801645057,335.97184776374434,1 45062U 20006U   26183.83095288  .00101041  00000+0  57262-3 0  9999,2 45062  53.0379  39.6709 0001048  89.2074 270.9066 15.78296026355080
STARLINK-1133,45064,53.1552,0.0004875,15.37125355,451.2839149976253,457.94584808212585,1 45064U 20006W   26183.69181229  .00040350  00000+0  10987-2 0  9993,2 45064  53.1552  81.5612 0004875  86.3411 273.8150 15.37125355354513
STARLINK-1167,45071,53.1548,0.0003193,15.39781948,444.57437984121043,448.9327549575519,1 45071U 20006AD  26183.84814752  .00050163  00000+0  12490-2 0  9996,2 45071  53.1548  79.4410 0003193  55.0340 305.0965 15.39781948354558
STARLINK-1168,45072,53.1581,0.0004252,15.37615166,450.25907574303164,456.06841389642614,1 45072U 20006AE  26183.86223993  .00127793  00000+0  33638-2 0  9991,2 45072  53.1581  80.9147 0004252  79.4424 280.7059 15.37615166354537
STARLINK-1172,45074,53.1535,0.000336,15.40819597,441.39698855803636,445.9812557121104,1 45074U 20006AG  26183.85422748  .00052765  00000+0  12687-2 0  9998,2 45074  53.1535  78.5640 0003360  67.0885 293.0475 15.40819597354562
STARLINK-1153,45080,53.1573,0.0004718,15.39785275,443.52375767853573,449.96371514141174,1 45080U 20006AN  26183.44059736  .00043915  00000+0  10953-2 0  9994,2 45080  53.1573  81.2663 0004718  48.7661 311.3750 15.39785275354498
STARLINK-1151,45081,53.0445,0.0006342,15.96118253,280.97442094729377,289.4261979906232,1 45081U 20006AP  26184.41675926  .00339277  57153-4  80801-3 0  9993,2 45081  53.0445  22.6060 0006342 274.0560 301.9453 15.96118253  6086
STARLINK-1185,45087,53.1579,0.0004296,15.48837708,417.20448355532335,423.0455502802588,1 45087U 20006AV  26183.82995829  .00065842  00000+0  12013-2 0  9997,2 45087  53.1579  57.9914 0004296 107.2074 252.9405 15.48837708354856
STARLINK-1183,45088,53.1567,0.0004365,15.36993075,452.02424524652906,457.9895798821972,1 45088U 20006AW  26183.84761214  .00043961  00000+0  12007-2 0  9990,2 45088  53.1567  65.6598 0004365 104.8239 255.3248 15.36993075354748
STARLINK-1152,45096,53.0325,0.0002918,15.52031907,408.81324625231446,412.7752665335456,1 45096U 20006BE  26183.85571988  .00097401  00000+0  15773-2 0  9998,2 45096  53.0325  17.6438 0002918 198.4465 161.6438 15.52031907355397
STARLINK-1184,45098,53.0531,0.0005138,15.1540531,516.2042143270037,523.2924813104228,1 45098U 20006BG  26183.74565822  .00022714  00000+0  12005-2 0  9998,2 45098  53.0531  83.6808 0005138 106.8363 253.3194 15.15405310354455
STARLINK-1193,45100,53.046,0.0003782,15.70482866,354.96858684233575,360.06343477971404,1 45100U 20006BJ  26182.97538459  .00067989  00000+0  54353-3 0  9998,2 45100  53.0460  30.4424 0003782  50.7481 309.3871 15.70482866355137
STARLINK-1143,45179,53.0299,0.0004269,16.00819414,269.30933123160867,274.987344853228,1 45179U 20012B   26183.11494994  .00370531  70072-4  67780-3 0  9992,2 45179  53.0299 116.2441 0004269  92.2922 267.8596 16.00819414354001
STARLINK-1202,45183,53.1517,0.0004309,15.36784699,452.6799113651459,458.5692470941258,1 45183U 20012F   26183.53531407  .00033960  00000+0  93741-3 0  9991,2 45183  53.1517 223.9044 0004309 349.9362  10.1554 15.36784699352566
STARLINK-1216,45185,53.1539,0.0004302,15.37198878,451.4576536125596,457.33636587454293,1 45185U 20012H   26183.83381678  .00024596  00000+0  67366-3 0  9998,2 45185  53.1539 222.3011 0004302 347.5077  12.5819 15.37198878352557
STARLINK-1225,45187,53.1553,0.000434,15.3721594,451.3811543305155,457.31174996698155,1 45187U 20012K   26183.83222719  .00041832  00000+0  11352-2 0  9995,2 45187  53.1553 222.7667 0004340 354.5051   5.5904 15.37215940352599
STARLINK-1230,45189,53.1536,0.0004355,15.37062093,451.8266155733454,457.77810575648436,1 45189U 20012M   26183.84595189  .00043962  00000+0  11980-2 0  9995,2 45189  53.1536 222.8026 0004355 351.0603   9.0323 15.37062093349828
